BEESAT-7                
1 48084U 21022AN  23227.52410327  .00020013  00000+0  87071-3 0  9992
2 48084  97.4866 126.1574 0017753 118.7548 241.5475 15.22139616130681
BEESAT-8                
1 48085U 21022AP  23227.15415626  .00009441  00000+0  47257-3 0  9993
2 48085  97.4925 124.9543 0018782 123.7012 236.6015 15.17461220131123
LEDSAT                  
1 49069U 21073D   23228.17101805  .00007749  00000+0  41358-3 0  9991
2 49069  97.4793 298.0613 0021942 272.0949  87.7770 15.15209738109983
SPORT                   
1 55129U 98067UW  23227.69297780  .00133929  00000+0  69395-3 0  9997
2 55129  51.6295  11.8986 0005683 317.9105  42.1459 15.80101169 35918
OPTIMAL-1               
1 55183U 98067VA  23228.08466879  .01107733  77768-3  10247-2 0  9993
2 55183  51.6334   0.1774 0013224 322.9310  37.0791 16.11588899 34827
